NORAD_CAT_ID,OBJECT_NAME,OBJECT_TYPE,EPOCH,MEAN_MOTION,ECCENTRICITY,INCLINATION,RA_OF_ASC_NODE,ARG_OF_PERICENTER,MEAN_ANOMALY,BSTAR,MEAN_MOTION_DOT,MEAN_MOTION_DDOT,TLE_LINE0,TLE_LINE1,TLE_LINE2,SEMIMAJOR_AXIS,PERIOD,APOGEE,PERIGEE,DECAYED
53870.0,STARLINK-4732,PAYLOAD,2024-05-12 21:55:00,15.08795091,0.0002051,53.217,12.8442,116.3198,243.8005,0.00043913,6.699e-05,0.0,0 STARLINK-4732,1 53870U 22114BE  24133.91320204  .00006699  00000-0  43913-3 0  9990,2 53870  53.2170  12.8442 0002051 116.3198 243.8005 15.08795091 92885,6918.018,95.44,541.302,538.464,0.0
53870.0,STARLINK-4732,PAYLOAD,2024-05-13 01:05:47,15.08816033,0.0001378,53.2164,12.2492,98.049,262.0658,0.0013984,0.00022023,0.0,0 STARLINK-4732,1 53870U 22114BE  24134.04568393  .00022023  00000-0  13984-2 0  9991,2 53870  53.2164  12.2492 0001378  98.0490 262.0658 15.08816033 92369,6917.954,95.439,540.772,538.865,0.0
53870.0,STARLINK-4732,PAYLOAD,2024-05-13 09:02:42,15.08834975,0.0001185,53.216,10.7618,99.146,260.9667,0.0015494,0.00024453,0.0,0 STARLINK-4732,1 53870U 22114BE  24134.37688421  .00024453  00000-0  15494-2 0  9999,2 53870  53.2160  10.7618 0001185  99.1460 260.9667 15.08834975 92950,6917.896,95.438,540.581,538.941,0.0
53870.0,STARLINK-4732,PAYLOAD,2024-05-13 21:45:46,15.0886548,0.0001062,53.2151,8.3801,102.0475,258.0636,0.00071304,0.00011086,0.0,0 STARLINK-4732,1 53870U 22114BE  24134.90679273  .00011086  00000-0  71304-3 0  9994,2 53870  53.2151   8.3801 0001062 102.0475 258.0636 15.08865480 93030,6917.803,95.436,540.402,538.933,0.0
53870.0,STARLINK-4732,PAYLOAD,2024-05-14 15:14:59,15.08890558,9.21e-05,53.2145,5.1089,100.9249,259.1847,0.00089197,0.00013956,0.0,0 STARLINK-4732,1 53870U 22114BE  24135.63541211  .00013956  00000-0  89197-3 0  9992,2 53870  53.2145   5.1089 0000921 100.9249 259.1847 15.08890558 93147,6917.726,95.434,540.228,538.954,0.0
53870.0,STARLINK-4732,PAYLOAD,2024-05-14 21:36:32,15.08856127,0.0001163,53.2154,3.9211,90.1072,270.0053,-0.00041106,-6.827e-05,0.0,0 STARLINK-4732,1 53870U 22114BE  24135.90037491 -.00006827  00000-0 -41106-3 0  9991,2 53870  53.2154   3.9211 0001163  90.1072 270.0053 15.08856127 93182,6917.831,95.437,540.501,538.892,0.0
53870.0,STARLINK-4732,PAYLOAD,2024-05-15 00:47:18,15.08857919,0.000114,53.2153,3.3265,88.479,271.6333,-0.00015988,-2.833e-05,0.0,0 STARLINK-4732,1 53870U 22114BE  24136.03285374 -.00002833  00000-0 -15988-3 0  9993,2 53870  53.2153   3.3265 0001140  88.4790 271.6333 15.08857919 92666,6917.826,95.436,540.479,538.902,0.0
53870.0,STARLINK-4732,PAYLOAD,2024-05-15 08:44:14,15.08845902,0.0001673,53.218,1.838,96.3829,263.7354,-0.00034325,-5.748e-05,0.0,0 STARLINK-4732,1 53870U 22114BE  24136.36405797 -.00005748  00000-0 -34325-3 0  9996,2 53870  53.2180   1.8380 0001673  96.3829 263.7354 15.08845902 92719,6917.862,95.437,540.885,538.57,0.0
53870.0,STARLINK-4732,PAYLOAD,2024-05-15 21:27:20,15.08843645,0.0001789,53.2163,359.459,95.5904,264.5293,0.00070853,0.00011007,0.0,0 STARLINK-4732,1 53870U 22114BE  24136.89398244  .00011007  00000-0  70853-3 0  9991,2 53870  53.2163 359.4590 0001789  95.5904 264.5293 15.08843645 93330,6917.869,95.437,540.972,538.497,0.0
53870.0,STARLINK-4732,PAYLOAD,2024-05-16 00:38:06,15.08849089,0.0001797,53.2168,358.8641,98.0269,262.0928,0.0010086,0.00015804,0.0,0 STARLINK-4732,1 53870U 22114BE  24137.02646203  .00015804  00000-0  10086-2 0  9998,2 53870  53.2168 358.8641 0001797  98.0269 262.0928 15.08849089 92814,6917.853,95.437,540.961,538.474,0.0
53870.0,STARLINK-4732,PAYLOAD,2024-05-16 21:18:06,15.08863131,0.0001917,53.2167,354.9986,105.6942,254.4262,0.00076867,0.00011974,0.0,0 STARLINK-4732,1 53870U 22114BE  24137.88757467  .00011974  00000-0  76867-3 0  9991,2 53870  53.2167 354.9986 0001917 105.6942 254.4262 15.08863131 93483,6917.81,95.436,541.001,538.349,0.0
53870.0,STARLINK-4732,PAYLOAD,2024-05-17 00:28:52,15.08863658,0.0001835,53.2172,354.4044,107.0376,253.0817,0.00070987,0.00011035,0.0,0 STARLINK-4732,1 53870U 22114BE  24138.02005275  .00011035  00000-0  70987-3 0  9996,2 53870  53.2172 354.4044 0001835 107.0376 253.0817 15.08863658 92962,6917.808,95.436,540.942,538.404,0.0
53870.0,STARLINK-4732,PAYLOAD,2024-05-17 21:08:54,15.08841959,0.0003326,53.2161,350.5384,94.8292,265.308,0.00061454,9.507e-05,0.0,0 STARLINK-4732,1 53870U 22114BE  24138.88118215  .00009507  00000-0  61454-3 0  9999,2 53870  53.2161 350.5384 0003326  94.8292 265.3080 15.08841959 93094,6917.874,95.437,542.04,537.439,0.0
53870.0,STARLINK-4732,PAYLOAD,2024-05-18 00:19:39,15.08866771,9.59e-05,53.2161,349.9448,151.2385,208.8661,0.0014276,0.00022522,0.0,0 STARLINK-4732,1 53870U 22114BE  24139.01365421  .00022522  00000-0  14276-2 0  9999,2 53870  53.2161 349.9448 0000959 151.2385 208.8661 15.08866771 93116,6917.799,95.436,540.327,539.0,0.0
53870.0,STARLINK-4732,PAYLOAD,2024-05-18 06:41:13,15.08808748,9.33e-05,53.2158,348.7553,83.6023,276.5075,-0.00037227,-6.202e-05,0.0,0 STARLINK-4732,1 53870U 22114BE  24139.27862529 -.00006202  00000-0 -37227-3 0  9999,2 53870  53.2158 348.7553 0000933  83.6023 276.5075 15.08808748 93150,6917.976,95.44,540.486,539.195,0.0
53870.0,STARLINK-4732,PAYLOAD,2024-05-18 20:59:40,15.08864111,0.0001493,53.215,346.081,92.8872,267.2291,0.0013084,0.0002061,0.0,0 STARLINK-4732,1 53870U 22114BE  24139.87477901  .00020610  00000-0  13084-2 0  9992,2 53870  53.2150 346.0810 0001493  92.8872 267.2291 15.08864111 93248,6917.807,95.436,540.705,538.639,0.0
53870.0,STARLINK-4732,PAYLOAD,2024-05-19 20:50:29,15.08823983,0.0001087,53.2166,341.6199,78.3512,281.7602,0.00012234,1.659e-05,0.0,0 STARLINK-4732,1 53870U 22114BE  24140.86839371  .00001659  00000-0  12234-3 0  9995,2 53870  53.2166 341.6199 0001087  78.3512 281.7602 15.08823983 93390,6917.929,95.439,540.546,539.042,0.0
53870.0,STARLINK-4732,PAYLOAD,2024-05-20 00:01:15,15.08830985,0.0001006,53.2161,341.0248,110.1838,249.9262,0.00015503,2.18e-05,0.0,0 STARLINK-4732,1 53870U 22114BE  24141.00087253  .00002180  00000-0  15503-3 0  9998,2 53870  53.2161 341.0248 0001006 110.1838 249.9262 15.08830985 93951,6917.908,95.438,540.469,539.077,0.0
53870.0,STARLINK-4732,PAYLOAD,2024-05-20 20:41:15,15.08867025,9.92e-05,53.216,337.1594,99.8514,260.259,0.0013787,0.00021738,0.0,0 STARLINK-4732,1 53870U 22114BE  24141.86198901  .00021738  00000-0  13787-2 0  9996,2 53870  53.2160 337.1594 0000992  99.8514 260.2590 15.08867025 93547,6917.798,95.436,540.349,538.977,0.0
53870.0,STARLINK-4732,PAYLOAD,2024-05-21 18:56:40,15.08849146,0.0001037,53.2165,332.9962,110.4407,249.6696,0.0012458,0.00019599,0.0,0 STARLINK-4732,1 53870U 22114BE  24142.78935209  .00019599  00000-0  12458-2 0  9994,2 53870  53.2165 332.9962 0001037 110.4407 249.6696 15.08849146 93683,6917.852,95.437,540.435,539.0,0.0
53870.0,STARLINK-4732,PAYLOAD,2024-05-21 22:07:26,15.08849296,9.8e-05,53.2162,332.4023,126.4497,233.6586,0.0011268,0.00017695,0.0,0 STARLINK-4732,1 53870U 22114BE  24142.92183076  .00017695  00000-0  11268-2 0  9990,2 53870  53.2162 332.4023 0000980 126.4497 233.6586 15.08849296 94245,6917.852,95.437,540.395,539.039,0.0
53870.0,STARLINK-4732,PAYLOAD,2024-05-22 21:58:13,15.08843588,0.0001028,53.2176,327.9337,110.8111,249.2992,0.00032194,4.84e-05,0.0,0 STARLINK-4732,1 53870U 22114BE  24143.91543240  .00004840  00000-0  32194-3 0  9993,2 53870  53.2176 327.9337 0001028 110.8111 249.2992 15.08843588 93859,6917.869,95.437,540.446,539.023,0.0
53870.0,STARLINK-4732,PAYLOAD,2024-05-23 12:16:41,15.08834198,9.21e-05,53.2175,325.256,101.0404,259.0692,-3.1119e-05,-7.83e-06,0.0,0 STARLINK-4732,1 53870U 22114BE  24144.51159715 -.00000783  00000-0 -31119-4 0  9991,2 53870  53.2175 325.2560 0000921 101.0404 259.0692 15.08834198 93948,6917.898,95.438,540.4,539.126,0.0
53870.0,STARLINK-4732,PAYLOAD,2024-05-23 18:38:14,15.08840492,0.0001157,53.2172,324.0735,108.7689,251.3428,0.00015358,2.157e-05,0.0,0 STARLINK-4732,1 53870U 22114BE  24144.77655590  .00002157  00000-0  15358-3 0  9992,2 53870  53.2172 324.0735 0001157 108.7689 251.3428 15.08840492 94528,6917.879,95.438,540.544,538.943,0.0
53870.0,STARLINK-4732,PAYLOAD,2024-05-24 12:07:29,15.08838041,0.0001126,53.2166,320.8045,89.0361,271.0761,0.00055113,8.494e-05,0.0,0 STARLINK-4732,1 53870U 22114BE  24145.50519857  .00008494  00000-0  55113-3 0  9992,2 53870  53.2166 320.8045 0001126  89.0361 271.0761 15.08838041 94631,6917.886,95.438,540.53,538.972,0.0
53870.0,STARLINK-4732,PAYLOAD,2024-05-24 18:29:00,15.0885596,8.43e-05,53.2163,319.6089,98.4781,261.6306,0.00037397,5.672e-05,0.0,0 STARLINK-4732,1 53870U 22114BE  24145.77014875  .00005672  00000-0  37397-3 0  9990,2 53870  53.2163 319.6089 0000843  98.4781 261.6306 15.08855960 94670,6917.832,95.437,540.28,539.113,0.0
53870.0,STARLINK-4732,PAYLOAD,2024-05-25 11:58:16,15.0883588,9.16e-05,53.2163,316.3427,103.5275,256.5819,-6.5167e-06,-3.91e-06,0.0,0 STARLINK-4732,1 53870U 22114BE  24146.49879768 -.00000391  00000-0 -65167-5 0  9993,2 53870  53.2163 316.3427 0000916 103.5275 256.5819 15.08835880 94241,6917.893,95.438,540.392,539.124,0.0
53870.0,STARLINK-4732,PAYLOAD,2024-05-26 03:52:07,15.0885698,0.0001773,53.217,313.3785,141.2283,218.8837,0.00059115,9.137e-05,0.0,0 STARLINK-4732,1 53870U 22114BE  24147.16119278  .00009137  00000-0  59115-3 0  9990,2 53870  53.2170 313.3785 0001773 141.2283 218.8837 15.08856980 94349,6917.828,95.436,540.92,538.467,0.0
53870.0,STARLINK-4732,PAYLOAD,2024-05-26 14:59:49,15.08834563,0.000113,53.2171,311.2966,102.5206,257.5912,-6.5568e-05,-1.331e-05,0.0,0 STARLINK-4732,1 53870U 22114BE  24147.62487903 -.00001331  00000-0 -65568-4 0  9994,2 53870  53.2171 311.2966 0001130 102.5206 257.5912 15.08834563 94954,6917.897,95.438,540.544,538.98,0.0
53870.0,STARLINK-4732,PAYLOAD,2024-05-26 18:10:35,15.08836374,0.0001824,53.2174,310.7054,135.6052,224.5086,-0.00027151,-4.606e-05,0.0,0 STARLINK-4732,1 53870U 22114BE  24147.75735638 -.00004606  00000-0 -27151-3 0  9992,2 53870  53.2174 310.7054 0001824 135.6052 224.5086 15.08836374 94436,6917.891,95.438,541.018,538.495,0.0
